{
 "generated_at": "2026-07-12T07:29:19Z",
 "sources": [
  {
   "name": "CelesTrak",
   "url": "https://celestrak.org/NORAD/elements/",
   "license": "frei verfügbar; Attribution. Ursprünglich USSPACECOM/Space-Track."
  },
  {
   "name": "GCAT (J. McDowell, planet4589.org)",
   "url": "https://planet4589.org/space/gcat/",
   "license": "CC-BY 4.0"
  }
 ],
 "satellites": [
  {
   "norad": 58646,
   "name": "TIANMU-1 12",
   "intl": "2023-205B",
   "group": "weather",
   "gcat": {
    "class": "B",
    "category": "MET",
    "owner": "TIANMU",
    "state": "CN"
   },
   "omm": {
    "OBJECT_NAME": "TIANMU-1 12",
    "OBJECT_ID": "2023-205B",
    "EPOCH": "2026-07-11T23:46:21.042048",
    "MEAN_MOTION": 15.2707467,
    "ECCENTRICITY": 0.00056028,
    "INCLINATION": 97.3432,
    "RA_OF_ASC_NODE": 213.9092,
    "ARG_OF_PERICENTER": 249.2542,
    "MEAN_ANOMALY": 110.8097,
    "EPHEMERIS_TYPE": 0,
    "CLASSIFICATION_TYPE": "U",
    "NORAD_CAT_ID": 58646,
    "ELEMENT_SET_NO": 999,
    "REV_AT_EPOCH": 14129,
    "BSTAR": 0.00013344665,
    "MEAN_MOTION_DOT": 0.00003472,
    "MEAN_MOTION_DDOT": 0
   }
  },
  {
   "norad": 58647,
   "name": "TIANMU-1 13",
   "intl": "2023-205C",
   "group": "weather",
   "gcat": {
    "class": "B",
    "category": "MET",
    "owner": "TIANMU",
    "state": "CN"
   },
   "omm": {
    "OBJECT_NAME": "TIANMU-1 13",
    "OBJECT_ID": "2023-205C",
    "EPOCH": "2026-07-11T23:00:07.534656",
    "MEAN_MOTION": 15.27067079,
    "ECCENTRICITY": 0.00054744,
    "INCLINATION": 97.346,
    "RA_OF_ASC_NODE": 214.1564,
    "ARG_OF_PERICENTER": 226.1882,
    "MEAN_ANOMALY": 133.8905,
    "EPHEMERIS_TYPE": 0,
    "CLASSIFICATION_TYPE": "U",
    "NORAD_CAT_ID": 58647,
    "ELEMENT_SET_NO": 999,
    "REV_AT_EPOCH": 14128,
    "BSTAR": 0.00013134779,
    "MEAN_MOTION_DOT": 0.00003415,
    "MEAN_MOTION_DDOT": 0
   }
  },
  {
   "norad": 58648,
   "name": "TIANMU-1 14",
   "intl": "2023-205D",
   "group": "weather",
   "gcat": {
    "class": "B",
    "category": "MET",
    "owner": "TIANMU",
    "state": "CN"
   },
   "omm": {
    "OBJECT_NAME": "TIANMU-1 14",
    "OBJECT_ID": "2023-205D",
    "EPOCH": "2026-07-12T00:12:08.479008",
    "MEAN_MOTION": 15.27111624,
    "ECCENTRICITY": 0.00061516,
    "INCLINATION": 97.3396,
    "RA_OF_ASC_NODE": 213.3681,
    "ARG_OF_PERICENTER": 233.8703,
    "MEAN_ANOMALY": 126.1967,
    "EPHEMERIS_TYPE": 0,
    "CLASSIFICATION_TYPE": "U",
    "NORAD_CAT_ID": 58648,
    "ELEMENT_SET_NO": 999,
    "REV_AT_EPOCH": 14129,
    "BSTAR": 0.00013372139,
    "MEAN_MOTION_DOT": 0.00003483,
    "MEAN_MOTION_DDOT": 0
   }
  },
  {
   "norad": 58700,
   "name": "TIANMU-1 15",
   "intl": "2024-004A",
   "group": "weather",
   "gcat": {
    "class": "B",
    "category": "MET",
    "owner": "TIANMU",
    "state": "CN"
   },
   "omm": {
    "OBJECT_NAME": "TIANMU-1 15",
    "OBJECT_ID": "2024-004A",
    "EPOCH": "2026-07-11T22:27:57.586752",
    "MEAN_MOTION": 15.26893193,
    "ECCENTRICITY": 0.00058494,
    "INCLINATION": 97.4668,
    "RA_OF_ASC_NODE": 19.1269,
    "ARG_OF_PERICENTER": 242.5253,
    "MEAN_ANOMALY": 117.5391,
    "EPHEMERIS_TYPE": 0,
    "CLASSIFICATION_TYPE": "U",
    "NORAD_CAT_ID": 58700,
    "ELEMENT_SET_NO": 999,
    "REV_AT_EPOCH": 13955,
    "BSTAR": 0.00012936417,
    "MEAN_MOTION_DOT": 0.00003343,
    "MEAN_MOTION_DDOT": 0
   }
  },
  {
   "norad": 58701,
   "name": "TIANMU-1 16",
   "intl": "2024-004B",
   "group": "weather",
   "gcat": {
    "class": "B",
    "category": "MET",
    "owner": "TIANMU",
    "state": "CN"
   },
   "omm": {
    "OBJECT_NAME": "TIANMU-1 16",
    "OBJECT_ID": "2024-004B",
    "EPOCH": "2026-07-11T23:47:28.326912",
    "MEAN_MOTION": 15.26996269,
    "ECCENTRICITY": 0.00043364,
    "INCLINATION": 97.4615,
    "RA_OF_ASC_NODE": 18.4004,
    "ARG_OF_PERICENTER": 260.8304,
    "MEAN_ANOMALY": 99.2444,
    "EPHEMERIS_TYPE": 0,
    "CLASSIFICATION_TYPE": "U",
    "NORAD_CAT_ID": 58701,
    "ELEMENT_SET_NO": 999,
    "REV_AT_EPOCH": 13956,
    "BSTAR": 0.00012400946,
    "MEAN_MOTION_DOT": 0.00003211,
    "MEAN_MOTION_DDOT": 0
   }
  },
  {
   "norad": 58702,
   "name": "TIANMU-1 17",
   "intl": "2024-004C",
   "group": "weather",
   "gcat": {
    "class": "B",
    "category": "MET",
    "owner": "TIANMU",
    "state": "CN"
   },
   "omm": {
    "OBJECT_NAME": "TIANMU-1 17",
    "OBJECT_ID": "2024-004C",
    "EPOCH": "2026-07-11T23:26:33.626976",
    "MEAN_MOTION": 15.26994347,
    "ECCENTRICITY": 0.00038429,
    "INCLINATION": 97.4642,
    "RA_OF_ASC_NODE": 18.8799,
    "ARG_OF_PERICENTER": 268.1744,
    "MEAN_ANOMALY": 91.9054,
    "EPHEMERIS_TYPE": 0,
    "CLASSIFICATION_TYPE": "U",
    "NORAD_CAT_ID": 58702,
    "ELEMENT_SET_NO": 999,
    "REV_AT_EPOCH": 13955,
    "BSTAR": 0.00013080636,
    "MEAN_MOTION_DOT": 0.00003391,
    "MEAN_MOTION_DDOT": 0
   }
  },
  {
   "norad": 58703,
   "name": "TIANMU-1 18",
   "intl": "2024-004D",
   "group": "weather",
   "gcat": {
    "class": "B",
    "category": "MET",
    "owner": "TIANMU",
    "state": "CN"
   },
   "omm": {
    "OBJECT_NAME": "TIANMU-1 18",
    "OBJECT_ID": "2024-004D",
    "EPOCH": "2026-07-11T22:51:52.173216",
    "MEAN_MOTION": 15.26910128,
    "ECCENTRICITY": 0.00035496,
    "INCLINATION": 97.466,
    "RA_OF_ASC_NODE": 19.1182,
    "ARG_OF_PERICENTER": 240.0819,
    "MEAN_ANOMALY": 120.0068,
    "EPHEMERIS_TYPE": 0,
    "CLASSIFICATION_TYPE": "U",
    "NORAD_CAT_ID": 58703,
    "ELEMENT_SET_NO": 999,
    "REV_AT_EPOCH": 13955,
    "BSTAR": 0.00012699799,
    "MEAN_MOTION_DOT": 0.00003281,
    "MEAN_MOTION_DDOT": 0
   }
  },
  {
   "norad": 58660,
   "name": "TIANMU-1 19",
   "intl": "2023-208A",
   "group": "weather",
   "gcat": {
    "class": "B",
    "category": "MET",
    "owner": "TIANMU",
    "state": "CN"
   },
   "omm": {
    "OBJECT_NAME": "TIANMU-1 19",
    "OBJECT_ID": "2023-208A",
    "EPOCH": "2026-07-11T21:57:41.222880",
    "MEAN_MOTION": 15.31943768,
    "ECCENTRICITY": 0.00042664,
    "INCLINATION": 97.452,
    "RA_OF_ASC_NODE": 309.3496,
    "ARG_OF_PERICENTER": 211.0309,
    "MEAN_ANOMALY": 149.0681,
    "EPHEMERIS_TYPE": 0,
    "CLASSIFICATION_TYPE": "U",
    "NORAD_CAT_ID": 58660,
    "ELEMENT_SET_NO": 999,
    "REV_AT_EPOCH": 14111,
    "BSTAR": 0.00016720266,
    "MEAN_MOTION_DOT": 0.00005078,
    "MEAN_MOTION_DDOT": 0
   }
  },
  {
   "norad": 58661,
   "name": "TIANMU-1 20",
   "intl": "2023-208B",
   "group": "weather",
   "gcat": {
    "class": "B",
    "category": "MET",
    "owner": "TIANMU",
    "state": "CN"
   },
   "omm": {
    "OBJECT_NAME": "TIANMU-1 20",
    "OBJECT_ID": "2023-208B",
    "EPOCH": "2026-07-11T22:24:29.588256",
    "MEAN_MOTION": 15.33132792,
    "ECCENTRICITY": 0.00060474,
    "INCLINATION": 97.4462,
    "RA_OF_ASC_NODE": 310.0293,
    "ARG_OF_PERICENTER": 225.1095,
    "MEAN_ANOMALY": 134.9657,
    "EPHEMERIS_TYPE": 0,
    "CLASSIFICATION_TYPE": "U",
    "NORAD_CAT_ID": 58661,
    "ELEMENT_SET_NO": 999,
    "REV_AT_EPOCH": 14121,
    "BSTAR": 0.00016136705,
    "MEAN_MOTION_DOT": 0.00005087,
    "MEAN_MOTION_DDOT": 0
   }
  },
  {
   "norad": 58662,
   "name": "TIANMU-1 21",
   "intl": "2023-208C",
   "group": "weather",
   "gcat": {
    "class": "B",
    "category": "MET",
    "owner": "TIANMU",
    "state": "CN"
   },
   "omm": {
    "OBJECT_NAME": "TIANMU-1 21",
    "OBJECT_ID": "2023-208C",
    "EPOCH": "2026-07-11T22:47:08.694816",
    "MEAN_MOTION": 15.35514186,
    "ECCENTRICITY": 0.00063798,
    "INCLINATION": 97.4521,
    "RA_OF_ASC_NODE": 312.8343,
    "ARG_OF_PERICENTER": 216.5037,
    "MEAN_ANOMALY": 143.5772,
    "EPHEMERIS_TYPE": 0,
    "CLASSIFICATION_TYPE": "U",
    "NORAD_CAT_ID": 58662,
    "ELEMENT_SET_NO": 999,
    "REV_AT_EPOCH": 14136,
    "BSTAR": 0.00017961274,
    "MEAN_MOTION_DOT": 0.00006119,
    "MEAN_MOTION_DDOT": 0
   }
  },
  {
   "norad": 58663,
   "name": "TIANMU-1 22",
   "intl": "2023-208D",
   "group": "weather",
   "gcat": {
    "class": "B",
    "category": "MET",
    "owner": "TIANMU",
    "state": "CN"
   },
   "omm": {
    "OBJECT_NAME": "TIANMU-1 22",
    "OBJECT_ID": "2023-208D",
    "EPOCH": "2026-07-11T21:43:48.185184",
    "MEAN_MOTION": 15.3139773,
    "ECCENTRICITY": 0.00024918,
    "INCLINATION": 97.4516,
    "RA_OF_ASC_NODE": 309.2544,
    "ARG_OF_PERICENTER": 234.5524,
    "MEAN_ANOMALY": 125.5485,
    "EPHEMERIS_TYPE": 0,
    "CLASSIFICATION_TYPE": "U",
    "NORAD_CAT_ID": 58663,
    "ELEMENT_SET_NO": 999,
    "REV_AT_EPOCH": 14111,
    "BSTAR": 0.00015135809,
    "MEAN_MOTION_DOT": 0.0000451,
    "MEAN_MOTION_DDOT": 0
   }
  },
  {
   "norad": 58297,
   "name": "UMBRA-07",
   "intl": "2023-174AT",
   "group": "sar",
   "gcat": {
    "class": "B",
    "category": "IMG-R",
    "owner": "UMBRA",
    "state": "US"
   },
   "omm": {
    "OBJECT_NAME": "UMBRA-07",
    "OBJECT_ID": "2023-174AT",
    "EPOCH": "2026-07-11T16:49:43.013856",
    "MEAN_MOTION": 15.09580721,
    "ECCENTRICITY": 0.00026633,
    "INCLINATION": 97.3787,
    "RA_OF_ASC_NODE": 247.5395,
    "ARG_OF_PERICENTER": 24.9199,
    "MEAN_ANOMALY": 335.2158,
    "EPHEMERIS_TYPE": 0,
    "CLASSIFICATION_TYPE": "U",
    "NORAD_CAT_ID": 58297,
    "ELEMENT_SET_NO": 999,
    "REV_AT_EPOCH": 14711,
    "BSTAR": 0.00038913488,
    "MEAN_MOTION_DOT": 0.00006191,
    "MEAN_MOTION_DDOT": 0
   }
  },
  {
   "norad": 60541,
   "name": "UMBRA-09",
   "intl": "2024-149CB",
   "group": "sar",
   "gcat": {
    "class": "B",
    "category": "IMG-R",
    "owner": "UMBRA",
    "state": "US"
   },
   "omm": {
    "OBJECT_NAME": "UMBRA-09",
    "OBJECT_ID": "2024-149CB",
    "EPOCH": "2026-07-09T05:03:03.129696",
    "MEAN_MOTION": 15.18723998,
    "ECCENTRICITY": 0.0001785,
    "INCLINATION": 97.697,
    "RA_OF_ASC_NODE": 277.8023,
    "ARG_OF_PERICENTER": 214.0416,
    "MEAN_ANOMALY": 146.0703,
    "EPHEMERIS_TYPE": 0,
    "CLASSIFICATION_TYPE": "U",
    "NORAD_CAT_ID": 60541,
    "ELEMENT_SET_NO": 999,
    "REV_AT_EPOCH": 10406,
    "BSTAR": 0.00051690564,
    "MEAN_MOTION_DOT": 0.00010667,
    "MEAN_MOTION_DDOT": 0
   }
  }
 ]
}
